      2.10          N: GNSS NAV DATA                        RINEX VERSION / TYPE
fic2rin                                 07/30/2021 00:17:18 PGM / RUN BY / DATE
                                                            END OF HEADER
32 21  7 29 22  0  0.0 1.119496300817e-05-2.387423592154e-12 0.000000000000e+00
    1.090000000000e+02-4.125000000000e+01 4.613406452611e-09 2.025743980094e+00
   -2.196058630943e-06 5.060252151452e-03 9.527429938316e-06 5.153701475143e+03
    4.248000000000e+05-1.434236764908e-07-2.488538914686e+00-4.656612873077e-08
    9.576212402656e-01 1.957500000000e+02-2.363060880525e+00-7.993547249043e-09
   -1.821504444400e-10 1.000000000000e+00 2.168000000000e+03 0.000000000000e+00
    2.400000000000e+00 0.000000000000e+00 4.656612873077e-10 1.090000000000e+02
    4.176000000000e+05 4.000000000000e+00
26 21  7 29 22  0  0.0 1.164996065199e-04 4.547473508865e-12 0.000000000000e+00
    5.700000000000e+01 1.753125000000e+01 5.104855494865e-09 3.140214483818e+00
    8.828938007355e-07 5.948470090516e-03 4.760921001434e-06 5.153595722198e+03
    4.248000000000e+05-1.862645149231e-09-4.326036569816e-01-5.401670932770e-08
    9.411377347357e-01 2.782500000000e+02 2.992145465955e-01-8.424636634217e-09
   -1.025042697143e-10 1.000000000000e+00 2.168000000000e+03 0.000000000000e+00
    2.400000000000e+00 0.000000000000e+00 6.984919309616e-09 5.700000000000e+01
    4.176000000000e+05 4.000000000000e+00
25 21  7 29 22  0  0.0 1.821517944336e-04 6.593836587854e-12 0.000000000000e+00
    4.000000000000e+01 1.803125000000e+01 4.550903849127e-09-2.471756169263e+00
    1.046806573868e-06 9.826743276790e-03 5.139037966728e-06 5.153594047546e+03
    4.248000000000e+05 7.636845111847e-08-3.893763236811e-01-5.587935447693e-08
    9.602662663730e-01 2.799375000000e+02 9.714762345703e-01-8.053192590653e-09
   -7.821754378894e-11 1.000000000000e+00 2.168000000000e+03 0.000000000000e+00
    2.400000000000e+00 0.000000000000e+00 5.587935447693e-09 4.000000000000e+01
    4.176000000000e+05 4.000000000000e+00
27 21  7 29 22  0  0.0-1.704655587673e-04-5.798028723802e-12 0.000000000000e+00
    8.700000000000e+01-1.734375000000e+01 4.031953661340e-09 1.265051385577e+00
   -9.573996067047e-07 9.436702355742e-03 8.746981620789e-06 5.153690530777e+03
    4.248000000000e+05-6.705522537231e-08 6.597387464126e-01 8.568167686462e-08
    9.755660019998e-01 2.188437500000e+02 6.360955969177e-01-7.973546415928e-09
   -2.992981812563e-10 1.000000000000e+00 2.168000000000e+03 0.000000000000e+00
    2.400000000000e+00 0.000000000000e+00 1.862645149231e-09 8.700000000000e+01
    4.176000000000e+05 4.000000000000e+00
17 21  7 29 22  0  0.0 4.813657142222e-04 5.798028723802e-12 0.000000000000e+00
    6.400000000000e+01-2.600000000000e+01 3.845517324089e-09 1.342997435360e+00
   -1.413747668266e-06 1.340847346000e-02 8.743256330490e-06 5.153640373230e+03
    4.248000000000e+05-1.005828380585e-07 7.208562394930e-01-3.315508365631e-07
    9.817954919288e-01 2.209687500000e+02-1.562321831078e+00-7.933187591963e-09
   -1.407201472733e-10 1.000000000000e+00 2.168000000000e+03 0.000000000000e+00
    3.400000000000e+00 0.000000000000e+00-1.117587089539e-08 6.400000000000e+01
    4.176000000000e+05 4.000000000000e+00
19 21  7 29 22  0  0.0 3.279559314251e-05 5.002220859751e-12 0.000000000000e+00
    1.900000000000e+02-1.971875000000e+01 3.791943663960e-09-2.536555296110e+00
   -8.568167686462e-07 9.263063198887e-03 8.532777428627e-06 5.153648878098e+03
    4.248000000000e+05 8.754432201385e-08 7.659330976965e-01 5.960464477539e-08
    9.803601995945e-01 2.183125000000e+02 1.903364892113e+00-7.663890660380e-09
   -1.028614274485e-10 1.000000000000e+00 2.168000000000e+03 0.000000000000e+00
    2.400000000000e+00 0.000000000000e+00-1.536682248116e-08 1.900000000000e+02
    4.176000000000e+05 4.000000000000e+00
18 21  7 29 22  0  0.0 3.372533246875e-04-3.069544618484e-12 0.000000000000e+00
    3.400000000000e+01 2.731250000000e+01 4.311608167215e-09-5.613441462140e-01
    1.344829797745e-06 1.738991704769e-03 7.566064596176e-06 5.153653453827e+03
    4.248000000000e+05 5.587935447693e-09 1.728854665713e+00-2.235174179077e-08
    9.685301296818e-01 2.355625000000e+02 2.887008330457e+00-8.039977754488e-09
    3.328710082708e-10 1.000000000000e+00 2.168000000000e+03 0.000000000000e+00
    2.400000000000e+00 0.000000000000e+00-8.381903171539e-09 8.020000000000e+02
    4.176000000000e+05 4.000000000000e+00
14 21  7 29 22  0  0.0 3.577861934900e-05-8.753886504564e-12 0.000000000000e+00
    1.800000000000e+02 1.821875000000e+01 4.725553981148e-09-2.222801377262e+00
    9.536743164062e-07 9.470219956711e-04 5.383044481277e-06 5.153749460220e+03
    4.248000000000e+05-1.862645149231e-08-3.432461747009e-01 3.725290298462e-08
    9.563875643752e-01 2.737812500000e+02 3.000207307591e+00-8.289631010691e-09
   -8.857511808063e-11 1.000000000000e+00 2.168000000000e+03 0.000000000000e+00
    2.400000000000e+00 0.000000000000e+00-7.916241884232e-09 4.360000000000e+02
    4.176000000000e+05 4.000000000000e+00
28 21  7 29 22  0  0.0 5.291835404932e-04-6.821210263297e-12 0.000000000000e+00
    9.100000000000e+01 1.303125000000e+01 4.319822795102e-09 1.839214382181e+00
    4.544854164124e-07 1.746006833855e-02 5.111098289490e-06 5.153723434448e+03
    4.248000000000e+05 3.278255462646e-07-2.928773463971e-01-1.173466444016e-07
    9.721066454694e-01 2.818750000000e+02-1.344047664249e+00-7.925330121811e-09
   -1.764359206929e-10 1.000000000000e+00 2.168000000000e+03 0.000000000000e+00
    4.850000000000e+00 6.300000000000e+01-1.117587089539e-08 9.100000000000e+01
    4.176000000000e+05 4.000000000000e+00
13 21  7 29 21 59 44.0 1.642736606300e-04 5.115907697473e-12 0.000000000000e+00
    2.400000000000e+01-3.500000000000e+01 4.482329564161e-09 7.629126443853e-01
   -1.627951860428e-06 5.182597204112e-03 9.784474968910e-06 5.153685632706e+03
    4.247840000000e+05-1.862645149231e-08-2.349223610936e+00 4.097819328308e-08
    9.682980728385e-01 1.946562500000e+02 9.572719232237e-01-8.044620805033e-09
   -2.110802209099e-10 1.000000000000e+00 2.168000000000e+03 0.000000000000e+00
    2.400000000000e+00 0.000000000000e+00-1.117587089539e-08 2.400000000000e+01
    4.182000000000e+05 4.000000000000e+00
 7 21  7 29 21 59 44.0 2.136565744877e-04 8.412825991400e-12 0.000000000000e+00
    2.900000000000e+01 5.390625000000e+01 4.675909056095e-09-1.522012675560e+00
    2.693384885788e-06 1.522059412673e-02 8.987262845039e-06 5.153747564316e+03
    4.247840000000e+05 3.557652235031e-07-1.426345586642e+00-1.024454832077e-07
    9.510981792511e-01 1.992500000000e+02-2.314731794510e+00-7.972832100459e-09
    1.421487782100e-10 1.000000000000e+00 2.168000000000e+03 0.000000000000e+00
    2.400000000000e+00 0.000000000000e+00-1.117587089539e-08 2.900000000000e+01
    4.182000000000e+05 4.000000000000e+00
 6 21  7 29 21 59 44.0 4.758220165968e-05 5.911715561524e-12 0.000000000000e+00
    2.000000000000e+01 2.090625000000e+01 3.987666102299e-09-6.926784828277e-01
    8.270144462585e-07 2.140248077922e-03 8.121132850647e-06 5.153548526764e+03
    4.247840000000e+05-7.450580596924e-09 1.709797492294e+00-2.793967723846e-08
    9.842315635952e-01 2.356250000000e+02-9.622139998925e-01-7.880328247302e-09
    3.660866775510e-10 1.000000000000e+00 2.168000000000e+03 0.000000000000e+00
    2.400000000000e+00 0.000000000000e+00 3.725290298462e-09 2.000000000000e+01
    4.194900000000e+05 4.000000000000e+00
 6 21  7 29 23 59 44.0 4.762457683682e-05 5.911715561524e-12 0.000000000000e+00
    2.100000000000e+01 2.156250000000e+01 3.864803841736e-09 3.578079061926e-01
    1.166015863419e-06 2.140758442692e-03 8.195638656616e-06 5.153549636841e+03
    4.319840000000e+05-1.862645149231e-09 1.709740748628e+00-2.235174179077e-08
    9.842342114770e-01 2.282187500000e+02-9.624481253019e-01-7.882114035973e-09
    3.671581507536e-10 1.000000000000e+00 2.168000000000e+03 0.000000000000e+00
    2.400000000000e+00 0.000000000000e+00 3.725290298462e-09 2.100000000000e+01
    4.248000000000e+05 4.000000000000e+00
13 21  7 29 23 59 44.0 1.643104478717e-04 5.115907697473e-12 0.000000000000e+00
    2.500000000000e+01-3.762500000000e+01 4.441970740197e-09 1.813006241364e+00
   -1.929700374603e-06 5.183091270737e-03 1.012720167637e-05 5.153686630249e+03
    4.319840000000e+05-1.452863216400e-07-2.349281858482e+00-8.754432201385e-08
    9.682972726223e-01 1.885625000000e+02 9.573511811994e-01-7.925330121811e-09
   -1.107188976008e-10 1.000000000000e+00 2.168000000000e+03 0.000000000000e+00
    2.400000000000e+00 0.000000000000e+00-1.117587089539e-08 2.500000000000e+01
    4.248000000000e+05 4.000000000000e+00
 7 21  7 29 23 59 44.0 2.137175761163e-04 8.412825991400e-12 0.000000000000e+00
    3.000000000000e+01 5.556250000000e+01 4.907347267854e-09-4.718396070193e-01
    2.864748239517e-06 1.522124023177e-02 8.706003427505e-06 5.153749073029e+03
    4.319840000000e+05 0.000000000000e+00-1.426404109217e+00 2.291053533554e-07
    9.510966929263e-01 2.063437500000e+02-2.314767704760e+00-8.462138196308e-09
    4.964492505326e-11 1.000000000000e+00 2.168000000000e+03 0.000000000000e+00
    2.400000000000e+00 0.000000000000e+00-1.117587089539e-08 3.000000000000e+01
    4.248000000000e+05 4.000000000000e+00
 1 21  7 30  0  0  0.0 6.131967529655e-04-1.148237060988e-11 0.000000000000e+00
    2.300000000000e+01 3.000000000000e+01 3.939092650449e-09 1.267067902578e-01
    1.545995473862e-06 1.107388921082e-02 8.277595043182e-06 5.153679910660e+03
    4.320000000000e+05-2.793967723846e-08 1.717993858026e+00 2.440065145493e-07
    9.847971672235e-01 2.370000000000e+02 8.795287421425e-01-7.983903990219e-09
    3.392998474863e-10 1.000000000000e+00 2.168000000000e+03 0.000000000000e+00
    2.400000000000e+00 0.000000000000e+00 5.122274160385e-09 2.300000000000e+01
    4.248000000000e+05 4.000000000000e+00
